ORBCOMM FM05            
1 25117U 97084F   25238.68600734  .00001392  00000+0  42633-3 0  9993
2 25117  45.0160  29.5158 0003352 199.0585 161.0142 14.46117274450814
ORBCOMM FM06            
1 25118U 97084G   25238.90460370  .00001426  00000+0  43459-3 0  9994
2 25118  45.0153  28.1254 0002361 195.2345 300.5835 14.46259882451766
ORBCOMM FM07            
1 25119U 97084H   25238.89191969  .00001557  00000+0  47053-3 0  9997
2 25119  45.0148  28.9516 0004228 198.5909 161.4789 14.46266546451752
ORBCOMM FM03            
1 25158U 98007B   25238.90174387  .00000996  00000+0  39427-3 0  9995
2 25158 107.9670 280.8895 0043554 127.0268 233.4868 14.34634749434189
ORBCOMM FM04            
1 25159U 98007C   25238.94355143  .00000930  00000+0  37030-3 0  9997
2 25159 107.9655 284.2444 0039259 124.4573 236.0286 14.34879270434372
ORBCOMM FM17            
1 25413U 98046A   25238.84567218  .00000627  00000+0  26631-3 0  9998
2 25413  44.9942 284.1075 0004726 229.5066 130.5369 14.35203184413326
ORBCOMM FM18            
1 25414U 98046B   25238.90439866  .00001296  00000+0  46428-3 0  9992
2 25414  44.9917 199.3273 0006673 289.8708  70.1421 14.38699821414432
ORBCOMM FM19            
1 25415U 98046C   25238.94067459  .00001296  00000+0  46614-3 0  9999
2 25415  44.9928 201.2647 0005432 288.1761 126.9801 14.38512224414394
